STARLINK-31346          
1 58943U 24027N   26068.97587990 -.00002720  00000+0 -79707-4 0  9996
2 58943  53.1615 306.0675 0001273 116.8249 243.2882 15.30208288117402
W-SERIES 4              
1 64543U 25135R   26068.82962635  .00052628  21484-5  63083-3 0  9991
2 64543  97.4458 182.1022 0402581  65.9998 298.2822 15.01503849 39543
